CCSDS_OMM_VERS = 2.0
CREATION_DATE  = 
ORIGINATOR     = 

OBJECT_NAME    = STARLINK-35710
OBJECT_ID      = 2025-244G
CENTER_NAME    = EARTH
REF_FRAME      = TEME
TIME_SYSTEM    = UTC
MEAN_ELEMENT_THEORY = SGP/SGP4

EPOCH          = 2025-11-07T04:00:03.000096
MEAN_MOTION    = 15.83524097
ECCENTRICITY   = .0000654
INCLINATION    = 53.1539
RA_OF_ASC_NODE = 85.8621
ARG_OF_PERICENTER = 68.4968
MEAN_ANOMALY   = 332.9350

EPHEMERIS_TYPE = 0
CLASSIFICATION_TYPE = U
NORAD_CAT_ID   = 66212
ELEMENT_SET_NO = 999
REV_AT_EPOCH   = 262
BSTAR          = -.66188E-2
MEAN_MOTION_DOT = -.1302491E-1
MEAN_MOTION_DDOT = 0

CCSDS_OMM_VERS = 2.0
CREATION_DATE  = 
ORIGINATOR     = 

OBJECT_NAME    = STARLINK-34204
OBJECT_ID      = 2025-244H
CENTER_NAME    = EARTH
REF_FRAME      = TEME
TIME_SYSTEM    = UTC
MEAN_ELEMENT_THEORY = SGP/SGP4

EPOCH          = 2025-11-07T04:00:03.000096
MEAN_MOTION    = 15.83505118
ECCENTRICITY   = .0000717
INCLINATION    = 53.1542
RA_OF_ASC_NODE = 85.8666
ARG_OF_PERICENTER = 67.1673
MEAN_ANOMALY   = 332.2361

EPHEMERIS_TYPE = 0
CLASSIFICATION_TYPE = U
NORAD_CAT_ID   = 66213
ELEMENT_SET_NO = 999
REV_AT_EPOCH   = 281
BSTAR          = -.65328E-2
MEAN_MOTION_DOT = -.1286605E-1
MEAN_MOTION_DDOT = 0

CCSDS_OMM_VERS = 2.0
CREATION_DATE  = 
ORIGINATOR     = 

OBJECT_NAME    = STARLINK-35714
OBJECT_ID      = 2025-244J
CENTER_NAME    = EARTH
REF_FRAME      = TEME
TIME_SYSTEM    = UTC
MEAN_ELEMENT_THEORY = SGP/SGP4

EPOCH          = 2025-11-07T04:00:03.000096
MEAN_MOTION    = 15.83518702
ECCENTRICITY   = .0000683
INCLINATION    = 53.1537
RA_OF_ASC_NODE = 85.8423
ARG_OF_PERICENTER = 75.3053
MEAN_ANOMALY   = 335.5488

EPHEMERIS_TYPE = 0
CLASSIFICATION_TYPE = U
NORAD_CAT_ID   = 66214
ELEMENT_SET_NO = 999
REV_AT_EPOCH   = 249
BSTAR          = -.67965E-2
MEAN_MOTION_DOT = -.1332843E-1
MEAN_MOTION_DDOT = 0

CCSDS_OMM_VERS = 2.0
CREATION_DATE  = 
ORIGINATOR     = 

OBJECT_NAME    = STARLINK-35712
OBJECT_ID      = 2025-244K
CENTER_NAME    = EARTH
REF_FRAME      = TEME
TIME_SYSTEM    = UTC
MEAN_ELEMENT_THEORY = SGP/SGP4

EPOCH          = 2025-11-07T04:00:03.000096
MEAN_MOTION    = 15.83544743
ECCENTRICITY   = .0000612
INCLINATION    = 53.1539
RA_OF_ASC_NODE = 85.8340
ARG_OF_PERICENTER = 79.5492
MEAN_ANOMALY   = 335.4336

EPHEMERIS_TYPE = 0
CLASSIFICATION_TYPE = U
NORAD_CAT_ID   = 66215
ELEMENT_SET_NO = 999
REV_AT_EPOCH   = 249
BSTAR          = -.686E-2
MEAN_MOTION_DOT = -.1345142E-1
MEAN_MOTION_DDOT = 0

CCSDS_OMM_VERS = 2.0
CREATION_DATE  = 
ORIGINATOR     = 

OBJECT_NAME    = STARLINK-35709
OBJECT_ID      = 2025-244L
CENTER_NAME    = EARTH
REF_FRAME      = TEME
TIME_SYSTEM    = UTC
MEAN_ELEMENT_THEORY = SGP/SGP4

EPOCH          = 2025-11-07T04:00:03.000096
MEAN_MOTION    = 15.83512554
ECCENTRICITY   = .0000541
INCLINATION    = 53.1538
RA_OF_ASC_NODE = 85.8574
ARG_OF_PERICENTER = 73.3574
MEAN_ANOMALY   = 330.4607

EPHEMERIS_TYPE = 0
CLASSIFICATION_TYPE = U
NORAD_CAT_ID   = 66216
ELEMENT_SET_NO = 999
REV_AT_EPOCH   = 249
BSTAR          = -.65717E-2
MEAN_MOTION_DOT = -.1293656E-1
MEAN_MOTION_DDOT = 0

CCSDS_OMM_VERS = 2.0
CREATION_DATE  = 
ORIGINATOR     = 

OBJECT_NAME    = STARLINK-35700
OBJECT_ID      = 2025-244M
CENTER_NAME    = EARTH
REF_FRAME      = TEME
TIME_SYSTEM    = UTC
MEAN_ELEMENT_THEORY = SGP/SGP4

EPOCH          = 2025-11-07T04:00:03.000096
MEAN_MOTION    = 15.83519865
ECCENTRICITY   = .0000615
INCLINATION    = 53.1539
RA_OF_ASC_NODE = 85.8521
ARG_OF_PERICENTER = 77.3976
MEAN_ANOMALY   = 328.8785

EPHEMERIS_TYPE = 0
CLASSIFICATION_TYPE = U
NORAD_CAT_ID   = 66217
ELEMENT_SET_NO = 999
REV_AT_EPOCH   = 249
BSTAR          = -.67505E-2
MEAN_MOTION_DOT = -.1324954E-1
MEAN_MOTION_DDOT = 0

CCSDS_OMM_VERS = 2.0
CREATION_DATE  = 
ORIGINATOR     = 

OBJECT_NAME    = STARLINK-35722
OBJECT_ID      = 2025-244N
CENTER_NAME    = EARTH
REF_FRAME      = TEME
TIME_SYSTEM    = UTC
MEAN_ELEMENT_THEORY = SGP/SGP4

EPOCH          = 2025-11-07T04:00:03.000096
MEAN_MOTION    = 15.83525349
ECCENTRICITY   = .00006
INCLINATION    = 53.1538
RA_OF_ASC_NODE = 85.8476
ARG_OF_PERICENTER = 66.2789
MEAN_ANOMALY   = 342.1871

EPHEMERIS_TYPE = 0
CLASSIFICATION_TYPE = U
NORAD_CAT_ID   = 66218
ELEMENT_SET_NO = 999
REV_AT_EPOCH   = 249
BSTAR          = -.67657E-2
MEAN_MOTION_DOT = -.1327865E-1
MEAN_MOTION_DDOT = 0

CCSDS_OMM_VERS = 2.0
CREATION_DATE  = 
ORIGINATOR     = 

OBJECT_NAME    = STARLINK-35737
OBJECT_ID      = 2025-244P
CENTER_NAME    = EARTH
REF_FRAME      = TEME
TIME_SYSTEM    = UTC
MEAN_ELEMENT_THEORY = SGP/SGP4

EPOCH          = 2025-11-07T04:00:03.000096
MEAN_MOTION    = 15.83535691
ECCENTRICITY   = .0000833
INCLINATION    = 53.1539
RA_OF_ASC_NODE = 85.8385
ARG_OF_PERICENTER = 68.2786
MEAN_ANOMALY   = 344.5199

EPHEMERIS_TYPE = 0
CLASSIFICATION_TYPE = U
NORAD_CAT_ID   = 66219
ELEMENT_SET_NO = 999
REV_AT_EPOCH   = 265
BSTAR          = -.68068E-2
MEAN_MOTION_DOT = -.1335659E-1
MEAN_MOTION_DDOT = 0

CCSDS_OMM_VERS = 2.0
CREATION_DATE  = 
ORIGINATOR     = 

OBJECT_NAME    = STARLINK-35677
OBJECT_ID      = 2025-244Q
CENTER_NAME    = EARTH
REF_FRAME      = TEME
TIME_SYSTEM    = UTC
MEAN_ELEMENT_THEORY = SGP/SGP4

EPOCH          = 2025-11-07T04:00:03.000096
MEAN_MOTION    = 15.83532629
ECCENTRICITY   = .0000564
INCLINATION    = 53.1537
RA_OF_ASC_NODE = 85.8291
ARG_OF_PERICENTER = 75.6669
MEAN_ANOMALY   = 341.8014

EPHEMERIS_TYPE = 0
CLASSIFICATION_TYPE = U
NORAD_CAT_ID   = 66220
ELEMENT_SET_NO = 999
REV_AT_EPOCH   = 249
BSTAR          = -.68913E-2
MEAN_MOTION_DOT = -.1349797E-1
MEAN_MOTION_DDOT = 0

CCSDS_OMM_VERS = 2.0
CREATION_DATE  = 
ORIGINATOR     = 

OBJECT_NAME    = STARLINK-35704
OBJECT_ID      = 2025-244R
CENTER_NAME    = EARTH
REF_FRAME      = TEME
TIME_SYSTEM    = UTC
MEAN_ELEMENT_THEORY = SGP/SGP4

EPOCH          = 2025-11-07T04:00:03.000096
MEAN_MOTION    = 15.83548900
ECCENTRICITY   = .0000706
INCLINATION    = 53.1536
RA_OF_ASC_NODE = 85.8244
ARG_OF_PERICENTER = 72.8746
MEAN_ANOMALY   = 346.6487

EPHEMERIS_TYPE = 0
CLASSIFICATION_TYPE = U
NORAD_CAT_ID   = 66221
ELEMENT_SET_NO = 999
REV_AT_EPOCH   = 249
BSTAR          = -.69406E-2
MEAN_MOTION_DOT = -.1359234E-1
MEAN_MOTION_DDOT = 0

CCSDS_OMM_VERS = 2.0
CREATION_DATE  = 
ORIGINATOR     = 

OBJECT_NAME    = STARLINK-35666
OBJECT_ID      = 2025-244S
CENTER_NAME    = EARTH
REF_FRAME      = TEME
TIME_SYSTEM    = UTC
MEAN_ELEMENT_THEORY = SGP/SGP4

EPOCH          = 2025-11-07T04:00:03.000096
MEAN_MOTION    = 15.83549565
ECCENTRICITY   = .0000785
INCLINATION    = 53.1539
RA_OF_ASC_NODE = 85.8150
ARG_OF_PERICENTER = 68.2277
MEAN_ANOMALY   = 355.9259

EPHEMERIS_TYPE = 0
CLASSIFICATION_TYPE = U
NORAD_CAT_ID   = 66222
ELEMENT_SET_NO = 999
REV_AT_EPOCH   = 260
BSTAR          = -.70317E-2
MEAN_MOTION_DOT = -.1374856E-1
MEAN_MOTION_DDOT = 0

CCSDS_OMM_VERS = 2.0
CREATION_DATE  = 
ORIGINATOR     = 

OBJECT_NAME    = STARLINK-35664
OBJECT_ID      = 2025-244T
CENTER_NAME    = EARTH
REF_FRAME      = TEME
TIME_SYSTEM    = UTC
MEAN_ELEMENT_THEORY = SGP/SGP4

EPOCH          = 2025-11-07T04:00:03.000096
MEAN_MOTION    = 15.83539900
ECCENTRICITY   = .0000741
INCLINATION    = 53.1535
RA_OF_ASC_NODE = 85.8194
ARG_OF_PERICENTER = 82.5387
MEAN_ANOMALY   = 339.5291

EPHEMERIS_TYPE = 0
CLASSIFICATION_TYPE = U
NORAD_CAT_ID   = 66223
ELEMENT_SET_NO = 999
REV_AT_EPOCH   = 260
BSTAR          = -.70208E-2
MEAN_MOTION_DOT = -.1372417E-1
MEAN_MOTION_DDOT = 0

