STARLINK-35710          
1 66212U 25244G   25311.16670139 -.01302491  00000+0 -66188-2 0  9991
2 66212  53.1539  85.8621 0000654  68.4968 332.9350 15.83524097  2620
STARLINK-34204          
1 66213U 25244H   25311.16670139 -.01286605  00000+0 -65328-2 0  9995
2 66213  53.1542  85.8666 0000717  67.1673 332.2361 15.83505118  2812
STARLINK-35714          
1 66214U 25244J   25311.16670139 -.01332843  00000+0 -67965-2 0  9991
2 66214  53.1537  85.8423 0000683  75.3053 335.5488 15.83518702  2496
STARLINK-35712          
1 66215U 25244K   25311.16670139 -.01345142  00000+0 -68600-2 0  9995
2 66215  53.1539  85.8340 0000612  79.5492 335.4336 15.83544743  2497
STARLINK-35709          
1 66216U 25244L   25311.16670139 -.01293656  00000+0 -65717-2 0  9994
2 66216  53.1538  85.8574 0000541  73.3574 330.4607 15.83512554  2491
STARLINK-35700          
1 66217U 25244M   25311.16670139 -.01324954  00000+0 -67505-2 0  9998
2 66217  53.1539  85.8521 0000615  77.3976 328.8785 15.83519865  2497
STARLINK-35722          
1 66218U 25244N   25311.16670139 -.01327865  00000+0 -67657-2 0  9991
2 66218  53.1538  85.8476 0000600  66.2789 342.1871 15.83525349  2498
STARLINK-35737          
1 66219U 25244P   25311.16670139 -.01335659  00000+0 -68068-2 0  9999
2 66219  53.1539  85.8385 0000833  68.2786 344.5199 15.83535691  2654
STARLINK-35677          
1 66220U 25244Q   25311.16670139 -.01349797  00000+0 -68913-2 0  9998
2 66220  53.1537  85.8291 0000564  75.6669 341.8014 15.83532629  2499
STARLINK-35704          
1 66221U 25244R   25311.16670139 -.01359234  00000+0 -69406-2 0  9994
2 66221  53.1536  85.8244 0000706  72.8746 346.6487 15.83548900  2496
STARLINK-35666          
1 66222U 25244S   25311.16670139 -.01374856  00000+0 -70317-2 0  9995
2 66222  53.1539  85.8150 0000785  68.2277 355.9259 15.83549565  2602
STARLINK-35664          
1 66223U 25244T   25311.16670139 -.01372417  00000+0 -70208-2 0  9996
2 66223  53.1535  85.8194 0000741  82.5387 339.5291 15.83539900  2606
